{"type": "FeatureCollection", "features": [ {"type": "Feature", "properties": {"norad_id": 34637, "name": "COSMOS 2251 DEB", "group": "cosmos-2251-debris", "lat": -47.118318512179016, "lon": 57.491850182418105, "alt_km": 732.6844149462286, "timestamp": "2025-12-26T05:31:12.901358+00:00", "meta": {"OBJECT_NAME": "COSMOS 2251 DEB", "OBJECT_ID": "1993-036XJ", "EPOCH": "2025-12-25T15:38:05.883072", "MEAN_MOTION": 14.6020378, "ECCENTRICITY": 0.0048752, "INCLINATION": 74.0494, "RA_OF_ASC_NODE": 76.5319, "ARG_OF_PERICENTER": 143.5669, "MEAN_ANOMALY": 6.691, "EPHEMERIS_TYPE": 0, "CLASSIFICATION_TYPE": "U", "NORAD_CAT_ID": 34637, "ELEMENT_SET_NO": 999, "REV_AT_EPOCH": 88715, "BSTAR": 0.00086458, "MEAN_MOTION_DOT": 4.21e-05, "MEAN_MOTION_DDOT": 0}, "tle": {"line1": "1 34637U 93036XJ  25359.65145698  .00004210  00000+0  86458-3 0  9992", "line2": "2 34637  74.0494  76.5319 0048752 143.5669   6.6910 14.60203780887156"}}, "geometry": {"type": "Point", "coordinates": [57.491850182418105, -47.118318512179016]}}, {"type": "Feature", "properties": {"norad_id": 34641, "name": "COSMOS 2251 DEB", "group": "cosmos-2251-debris", "lat": -73.72140060611379, "lon": -40.75060314731717, "alt_km": 719.0278684369077, "timestamp": "2025-12-26T05:31:12.901368+00:00", "meta": {"OBJECT_NAME": "COSMOS 2251 DEB", "OBJECT_ID": "1993-036XN", "EPOCH": "2025-12-25T03:37:10.772832", "MEAN_MOTION": 14.52080579, "ECCENTRICITY": 0.00190938, "INCLINATION": 73.836, "RA_OF_ASC_NODE": 57.9813, "ARG_OF_PERICENTER": 330.5665, "MEAN_ANOMALY": 58.546, "EPHEMERIS_TYPE": 0, "CLASSIFICATION_TYPE": "U", "NORAD_CAT_ID": 34641, "ELEMENT_SET_NO": 999, "REV_AT_EPOCH": 88436, "BSTAR": 0.00073840717, "MEAN_MOTION_DOT": 2.967e-05, "MEAN_MOTION_DDOT": 0}, "tle": {"line1": "1 34641U 93036XN  25359.15081913  .00002967  00000+0  73841-3 0  9990", "line2": "2 34641  73.8360  57.9813 0019093 330.5665  58.5460 14.52080579884368"}}, "geometry": {"type": "Point", "coordinates": [-40.75060314731717, -73.72140060611379]}}, {"type": "Feature", "properties": {"norad_id": 34642, "name": "COSMOS 2251 DEB", "group": "cosmos-2251-debris", "lat": -57.774677643346536, "lon": -70.63364995110177, "alt_km": 1049.0840023631135, "timestamp": "2025-12-26T05:31:12.901378+00:00", "meta": {"OBJECT_NAME": "COSMOS 2251 DEB", "OBJECT_ID": "1993-036XP", "EPOCH": "2025-12-24T08:05:16.562400", "MEAN_MOTION": 13.99004253, "ECCENTRICITY": 0.0206477, "INCLINATION": 74.0043, "RA_OF_ASC_NODE": 319.7125, "ARG_OF_PERICENTER": 136.7937, "MEAN_ANOMALY": 350.6828, "EPHEMERIS_TYPE": 0, "CLASSIFICATION_TYPE": "U", "NORAD_CAT_ID": 34642, "ELEMENT_SET_NO": 999, "REV_AT_EPOCH": 85455, "BSTAR": 0.00081021111, "MEAN_MOTION_DOT": 1.383e-05, "MEAN_MOTION_DDOT": 0}, "tle": {"line1": "1 34642U 93036XP  25358.33699725  .00001383  00000+0  81021-3 0  9996", "line2": "2 34642  74.0043 319.7125 0206477 136.7937 350.6828 13.99004253854554"}}, "geometry": {"type": "Point", "coordinates": [-70.63364995110177, -57.774677643346536]}}, {"type": "Feature", "properties": {"norad_id": 34671, "name": "COSMOS 2251 DEB", "group": "cosmos-2251-debris", "lat": 18.82863801267172, "lon": 113.85581121954199, "alt_km": 677.3646908257178, "timestamp": "2025-12-26T05:31:12.901388+00:00", "meta": {"OBJECT_NAME": "COSMOS 2251 DEB", "OBJECT_ID": "1993-036XR", "EPOCH": "2025-12-24T07:45:05.041728", "MEAN_MOTION": 14.67129194, "ECCENTRICITY": 0.00105725, "INCLINATION": 74.0275, "RA_OF_ASC_NODE": 111.9321, "ARG_OF_PERICENTER": 193.4023, "MEAN_ANOMALY": 198.0562, "EPHEMERIS_TYPE": 0, "CLASSIFICATION_TYPE": "U", "NORAD_CAT_ID": 34671, "ELEMENT_SET_NO": 999, "REV_AT_EPOCH": 88467, "BSTAR": 0.0017522099, "MEAN_MOTION_DOT": 9.84e-05, "MEAN_MOTION_DDOT": 0}, "tle": {"line1": "1 34671U 93036XR  25358.32297502  .00009840  00000+0  17522-2 0  9994", "line2": "2 34671  74.0275 111.9321 0010572 193.4023 198.0562 14.67129194884671"}}, "geometry": {"type": "Point", "coordinates": [113.85581121954199, 18.82863801267172]}}, {"type": "Feature", "properties": {"norad_id": 34672, "name": "COSMOS 2251 DEB", "group": "cosmos-2251-debris", "lat": 25.727494451191117, "lon": 92.87687522702463, "alt_km": 785.7384918240132, "timestamp": "2025-12-26T05:31:12.901398+00:00", "meta": {"OBJECT_NAME": "COSMOS 2251 DEB", "OBJECT_ID": "1993-036XS", "EPOCH": "2025-12-23T01:39:52.431840", "MEAN_MOTION": 14.36424251, "ECCENTRICITY": 0.00243004, "INCLINATION": 74.0343, "RA_OF_ASC_NODE": 286.6106, "ARG_OF_PERICENTER": 356.389, "MEAN_ANOMALY": 18.9966, "EPHEMERIS_TYPE": 0, "CLASSIFICATION_TYPE": "U", "NORAD_CAT_ID": 34672, "ELEMENT_SET_NO": 999, "REV_AT_EPOCH": 65326, "BSTAR": 0.00025150328, "MEAN_MOTION_DOT": 7.13e-06, "MEAN_MOTION_DDOT": 0}, "tle": {"line1": "1 34672U 93036XS  25357.06935685  .00000713  00000+0  25150-3 0  9993", "line2": "2 34672  74.0343 286.6106 0024300 356.3890  18.9966 14.36424251653260"}}, "geometry": {"type": "Point", "coordinates": [92.87687522702463, 25.727494451191117]}}, {"type": "Feature", "properties": {"norad_id": 34678, "name": "COSMOS 2251 DEB", "group": "cosmos-2251-debris", "lat": 26.42794416132896, "lon": -10.654967315840006, "alt_km": 772.3956065793409, "timestamp": "2025-12-26T05:31:12.901408+00:00", "meta": {"OBJECT_NAME": "COSMOS 2251 DEB", "OBJECT_ID": "1993-036XY", "EPOCH": "2025-12-25T03:07:16.447872", "MEAN_MOTION": 14.3006716, "ECCENTRICITY": 0.0024799, "INCLINATION": 74.0378, "RA_OF_ASC_NODE": 343.1657, "ARG_OF_PERICENTER": 28.4914, "MEAN_ANOMALY": 98.586, "EPHEMERIS_TYPE": 0, "CLASSIFICATION_TYPE": "U", "NORAD_CAT_ID": 34678, "ELEMENT_SET_NO": 999, "REV_AT_EPOCH": 87556, "BSTAR": 3.7171e-05, "MEAN_MOTION_DOT": 7.1e-07, "MEAN_MOTION_DDOT": 0}, "tle": {"line1": "1 34678U 93036XY  25359.13005148  .00000071  00000+0  37171-4 0  9995", "line2": "2 34678  74.0378 343.1657 0024799  28.4914  98.5860 14.30067160875562"}}, "geometry": {"type": "Point", "coordinates": [-10.654967315840006, 26.42794416132896]}}, {"type": "Feature", "properties": {"norad_id": 34680, "name": "COSMOS 2251 DEB", "group": "cosmos-2251-debris", "lat": -4.290076736746985, "lon": 102.87023933514163, "alt_km": 697.6977406951464, "timestamp": "2025-12-26T05:31:12.901418+00:00", "meta": {"OBJECT_NAME": "COSMOS 2251 DEB", "OBJECT_ID": "1993-036YA", "EPOCH": "2025-12-25T08:26:00.964320", "MEAN_MOTION": 14.60752772, "ECCENTRICITY": 0.0006228, "INCLINATION": 74.0438, "RA_OF_ASC_NODE": 105.7771, "ARG_OF_PERICENTER": 207.8275, "MEAN_ANOMALY": 209.3202, "EPHEMERIS_TYPE": 0, "CLASSIFICATION_TYPE": "U", "NORAD_CAT_ID": 34680, "ELEMENT_SET_NO": 999, "REV_AT_EPOCH": 88512, "BSTAR": 0.0011609, "MEAN_MOTION_DOT": 5.64e-05, "MEAN_MOTION_DDOT": 0}, "tle": {"line1": "1 34680U 93036YA  25359.35140005  .00005640  00000+0  11609-2 0  9997", "line2": "2 34680  74.0438 105.7771 0006228 207.8275 209.3202 14.60752772885129"}}, "geometry": {"type": "Point", "coordinates": [102.87023933514163, -4.290076736746985]}}, {"type": "Feature", "properties": {"norad_id": 34681, "name": "COSMOS 2251 DEB", "group": "cosmos-2251-debris", "lat": -59.7675892928878, "lon": 113.09206813827667, "alt_km": 620.2572591754952, "timestamp": "2025-12-26T05:31:12.901428+00:00", "meta": {"OBJECT_NAME": "COSMOS 2251 DEB", "OBJECT_ID": "1993-036YB", "EPOCH": "2025-12-25T04:41:29.056416", "MEAN_MOTION": 14.83490223, "ECCENTRICITY": 0.00256709, "INCLINATION": 74.0618, "RA_OF_ASC_NODE": 265.7723, "ARG_OF_PERICENTER": 320.9215, "MEAN_ANOMALY": 160.5558, "EPHEMERIS_TYPE": 0, "CLASSIFICATION_TYPE": "U", "NORAD_CAT_ID": 34681, "ELEMENT_SET_NO": 999, "REV_AT_EPOCH": 89455, "BSTAR": 0.0013729625, "MEAN_MOTION_DOT": 0.00011341, "MEAN_MOTION_DDOT": 0}, "tle": {"line1": "1 34681U 93036YB  25359.19547519  .00011341  00000+0  13730-2 0  9993", "line2": "2 34681  74.0618 265.7723 0025670 320.9215 160.5558 14.83490223894551"}}, "geometry": {"type": "Point", "coordinates": [113.09206813827667, -59.7675892928878]}}, {"type": "Feature", "properties": {"norad_id": 34682, "name": "COSMOS 2251 DEB", "group": "cosmos-2251-debris", "lat": -67.08481425138342, "lon": -80.09393510894455, "alt_km": 697.9609399240026, "timestamp": "2025-12-26T05:31:12.901438+00:00", "meta": {"OBJECT_NAME": "COSMOS 2251 DEB", "OBJECT_ID": "1993-036YC", "EPOCH": "2025-12-25T05:37:08.190912", "MEAN_MOTION": 14.5897783, "ECCENTRICITY": 0.0017639, "INCLINATION": 74.0393, "RA_OF_ASC_NODE": 59.1916, "ARG_OF_PERICENTER": 190.9494, "MEAN_ANOMALY": 233.5943, "EPHEMERIS_TYPE": 0, "CLASSIFICATION_TYPE": "U", "NORAD_CAT_ID": 34682, "ELEMENT_SET_NO": 999, "REV_AT_EPOCH": 88868, "BSTAR": 0.000728, "MEAN_MOTION_DOT": 3.396e-05, "MEAN_MOTION_DDOT": 0}, "tle": {"line1": "1 34682U 93036YC  25359.23412258  .00003396  00000+0  72800-3 0  9995", "line2": "2 34682  74.0393  59.1916 0017639 190.9494 233.5943 14.58977830888683"}}, "geometry": {"type": "Point", "coordinates": [-80.09393510894455, -67.08481425138342]}}, {"type": "Feature", "properties": {"norad_id": 34683, "name": "COSMOS 2251 DEB", "group": "cosmos-2251-debris", "lat": -39.189933795070736, "lon": 52.82380600835806, "alt_km": 693.4031100006287, "timestamp": "2025-12-26T05:31:12.901448+00:00", "meta": {"OBJECT_NAME": "COSMOS 2251 DEB", "OBJECT_ID": "1993-036YD", "EPOCH": "2025-12-25T15:38:47.520960", "MEAN_MOTION": 14.64647296, "ECCENTRICITY": 0.0017296, "INCLINATION": 74.0287, "RA_OF_ASC_NODE": 67.4379, "ARG_OF_PERICENTER": 182.0594, "MEAN_ANOMALY": 330.0429, "EPHEMERIS_TYPE": 0, "CLASSIFICATION_TYPE": "U", "NORAD_CAT_ID": 34683, "ELEMENT_SET_NO": 999, "REV_AT_EPOCH": 88537, "BSTAR": 0.0012249, "MEAN_MOTION_DOT": 6.502e-05, "MEAN_MOTION_DDOT": 0}, "tle": {"line1": "1 34683U 93036YD  25359.65193890  .00006502  00000+0  12249-2 0  9992", "line2": "2 34683  74.0287  67.4379 0017296 182.0594 330.0429 14.64647296885375"}}, "geometry": {"type": "Point", "coordinates": [52.82380600835806, -39.189933795070736]}}]}